HORYU-4                 
1 41340U 16012D   20238.16974416  .00000365  00000-0  20844-4 0  9991
2 41340  31.0041 254.1668 0013905 110.7934 249.4192 15.01539723248212
E-ST@R-II               
1 41459U 16025D   20238.27294128  .00000092  00000-0  92435-5 0  9996
2 41459  98.1097 351.8738 0163875 340.5300  18.9753 15.06583123237806
AAUSAT 4                
1 41460U 16025E   20238.36950727  .00001044  00000-0  54855-4 0  9993
2 41460  98.1083 354.5557 0152491 328.2329  30.9776 15.08963250238038
BEESAT-4                
1 41619U 16040W   20237.70691284  .00001112  00000-0  48514-4 0  9994
2 41619  97.3140 295.6110 0009487 303.9779  56.0557 15.24164785219796
CANX-7                  
1 41788U 16059F   20238.24945792  .00005662  00000-0  76364-3 0  9994
2 41788  98.2582 327.8807 0030374  90.3284 270.1481 14.79222515209981
RAVAN                   
1 41849U 16067B   20238.31664058  .00000518  00000-0  48323-4 0  9992
2 41849  97.9376 349.3628 0008131  25.2182 334.9435 14.98604650206931
CELTEE 1                
1 41850U 16067C   20237.84092329  .00000326  00000-0  33412-4 0  9997
2 41850  97.9318 346.4026 0009119  29.7093 330.4644 14.97209305206734
OPTICUBE 04             
1 41851U 16067D   20237.85014438  .00000600  00000-0  57457-4 0  9994
2 41851  97.9312 345.9935 0009469  32.8287 327.3521 14.96944165206716
AEROCUBE 8D             
1 41852U 16067E   20237.86659306  .00000212  00000-0  23753-4 0  9996
2 41852  97.9323 345.8507 0010449  31.8015 328.3835 14.96947398206698
AEROCUBE 8C             
1 41853U 16067F   20238.30085085  .00000203  00000-0  22990-4 0  9996
2 41853  97.9308 346.1890 0010367  30.0633 330.1181 14.96904519206757
PROMETHEUS 2-1          
1 41854U 16067G   20237.78752177  .00000913  00000-0  84076-4 0  9992
2 41854  97.9327 346.0410 0010869  32.8436 327.3459 14.97247026206697
PROMETHEUS 2-3          
1 41855U 16067H   20238.25533563  .00000909  00000-0  83691-4 0  9999
2 41855  97.9329 346.5518 0011023  31.5942 328.5939 14.97256771206766
INS-1B                  
1 41954U 17008G   20238.11886455  .00001114  00000-0  47537-4 0  9999
2 41954  97.3490 301.2758 0010482  64.5787 295.6535 15.24925408195836
BGUSAT                  
1 41999U 17008BD  20237.72728947  .00001909  00000-0  73089-4 0  9998
2 41999  97.3613 305.4267 0009502  73.6598 286.5686 15.27745149195375
DIDO-2                  
1 42000U 17008BE  20237.76823507  .00000782  00000-0  34553-4 0  9995
2 42000  97.3498 301.4116 0010107  81.8071 278.4312 15.24577544195172
PEASSS                  
1 42015U 17008BV  20237.75960021  .00001005  00000-0  42177-4 0  9993
2 42015  97.3526 303.1444 0008026  84.7510 275.4644 15.25744421195761
AL-FARABI 1             
1 42016U 17008BW  20238.13561164  .00001301  00000-0  52375-4 0  9992
2 42016  97.3556 304.6744 0007848  83.1636 277.0495 15.26623962196004
NAYIF-1 (EO-88)         
1 42017U 17008BX  20237.71920453  .00001293  00000-0  52033-4 0  9997
2 42017  97.3551 304.2745 0007914  83.6772 276.5368 15.26664610195969
UCLSAT                  
1 42765U 17036A   20238.18334635  .00001042  00000-0  46267-4 0  9995
2 42765  97.2951 290.5620 0012420 137.7618 222.4579 15.23656793176456
LITUANICASAT-2          
1 42768U 17036D   20238.19946815  .00001810  00000-0  76713-4 0  9990
2 42768  97.3010 290.6623 0015988 129.6813 230.5838 15.24295535176316
AALTO-1                 
1 42775U 17036L   20237.70136469  .00000652  00000-0  31527-4 0  9997
2 42775  97.2926 287.7153 0015041 134.8382 225.4080 15.21928547176059
URSA MAIOR              
1 42776U 17036M   20238.14248820  .00000703  00000-0  33576-4 0  9995
2 42776  97.2937 288.4576 0014896 133.0943 227.1543 15.22119765176137
COMPASS 2               
1 42777U 17036N   20238.16374404  .00001404  00000-0  60530-4 0  9995
2 42777  97.2997 291.0193 0013573 130.1766 230.0663 15.24104218176260
DIAMOND RED             
1 42783U 17036U   20237.88091615  .00000845  00000-0  38851-4 0  9999
2 42783  97.2950 289.4643 0013070 141.2064 219.0113 15.22946570176162
PEGASUS                 
1 42784U 17036V   20238.09138179  .00000975  00000-0  43877-4 0  9999
2 42784  97.2955 290.1342 0012956 139.3652 220.8555 15.23340370176220
DIAMOND GREEN           
1 42785U 17036W   20238.14251897  .00000833  00000-0  38324-4 0  9993
2 42785  97.2953 289.7562 0012967 140.9381 219.2794 15.22945695176199
DIAMOND BLUE            
1 42786U 17036X   20237.94461501  .00000845  00000-0  38829-4 0  9999
2 42786  97.2952 289.5587 0012806 141.6516 218.5634 15.22946699176240
NUDTSAT                 
1 42787U 17036Y   20237.95682140  .00001406  00000-0  59578-4 0  9993
2 42787  97.3000 291.5614 0011746 132.8196 227.4030 15.24712783176132
SUCHAI                  
1 42788U 17036Z   20237.82769835  .00001168  00000-0  51133-4 0  9991
2 42788  97.2965 290.5308 0012520 138.2607 221.9588 15.23913391176290
SKCUBE                  
1 42789U 17036AA  20237.68407176  .00001060  00000-0  46915-4 0  9996
2 42789  97.2959 290.2222 0012394 139.0391 221.1780 15.23744832176180
VZLUSAT-1               
1 42790U 17036AB  20237.68397428  .00001426  00000-0  60430-4 0  9990
2 42790  97.2985 291.2891 0011965 136.4610 223.7575 15.24694450176240
ROBUSTA-1B              
1 42792U 17036AD  20237.69495682  .00001128  00000-0  49446-4 0  9997
2 42792  97.2962 290.5058 0011966 139.0282 221.1857 15.23941018176215
CICERO 6                
1 42793U 17036AE  20237.90922573  .00000746  00000-0  34349-4 0  9997
2 42793  97.2936 290.0309 0011239 140.5275 219.6783 15.23242855176283
D-SAT                   
1 42794U 17036AF  20238.08323477  .00000125  00000-0  15925-4 0  9996
2 42794  97.4897 267.3279 0127313 135.4241 225.7304 14.91307080172922
CORVUS BC2              
1 42846U 17042X   20238.11078095 -.00000027  00000-0  25661-5 0  9999
2 42846  97.5132 118.5398 0010923  54.2920 305.9315 14.92128724169647
CORVUS BC1              
1 42847U 17042Y   20237.63242316  .00000154  00000-0  20312-4 0  9992
2 42847  97.5134 118.2655 0010554  55.0347 305.1862 14.92230416169578
MIRATA                  
1 43015U 17073C   20238.17602764  .00000429  00000-0  38551-4 0  9990
2 43015  97.7141 147.7764 0252625 184.0640 175.8526 14.79753414149389
MAKERSAT 0              
1 43016U 17073D   20237.75234702  .00000283  00000-0  27436-4 0  9995
2 43016  97.7175 147.5352 0255504 186.6782 173.1004 14.79290553149294
DELLINGR (RBLE)         
1 43021U 98067NJ  20238.36311566  .00012556  00000-0  96619-4 0  9990
2 43021  51.6341 287.2362 0001971 357.6860   2.4129 15.72443016157706
AEROCUBE 7B (OCSD B)    
1 43042U 17071F   20237.85318770  .00003416  00000-0  82704-4 0  9991
2 43042  51.6372  90.8230 0003801 300.5015  59.5595 15.44030501152949
AEROCUBE 7C (OCSD C)    
1 43043U 17071G   20238.05188451  .00003613  00000-0  87010-4 0  9990
2 43043  51.6372  89.9151 0004050 305.9345  54.1265 15.44005855152942
CHEFSAT                 
1 43044U 17071H   20237.68878288  .00007449  00000-0  14190-3 0  9992
2 43044  51.6375  74.2945 0003635 311.4300  48.6375 15.49270274153120
ASGARDIA 1              
1 43049U 17071N   20237.84984593  .00003225  00000-0  78600-4 0  9997
2 43049  51.6387  90.1479 0001911 329.4894  30.5981 15.44021821152926
ISARA                   
1 43050U 17071P   20237.78279770  .00006280  00000-0  12577-3 0  9990
2 43050  51.6357  77.0324 0001744 330.8227  29.2663 15.48122666153092
PROPCUBE 2 (FAUNA)      
1 43052U 17071R   20238.07406688  .00003590  00000-0  85072-4 0  9997
2 43052  51.6378  87.1614 0001834 327.9277  32.1597 15.44509966152976
CORVUS BC3              
1 43118U 18004H   20238.19834410  .00000656  00000-0  30480-4 0  9991
2 43118  97.4392 307.8969 0010754 162.5852 197.5756 15.23453528145469
MICROMAS-2A             
1 43131U 18004W   20238.26477327  .00001542  00000-0  63733-4 0  9996
2 43131  97.4446 309.9456 0009706 159.4306 200.7324 15.25483673145589
SPACEBEE-4              
1 43139U 18004AE  20238.17305050  .00002375  00000-0  92736-4 0  9997
2 43139  97.4480 311.2080 0009144 159.3286 200.8324 15.26865193145635
SPACEBEE-3              
1 43140U 18004AF  20237.68258139  .00003042  00000-0  11463-3 0  9998
2 43140  97.4499 311.5168 0008859 158.7407 201.4202 15.27832995145612
SPACEBEE-2              
1 43141U 18004AG  20237.90995386  .00003400  00000-0  12651-3 0  9994
2 43141  97.4513 312.0480 0008873 157.3492 202.8141 15.28164204145662
SPACEBEE-1              
1 43142U 18004AH  20237.86117812  .00003627  00000-0  13320-3 0  9995
2 43142  97.4516 312.3020 0008877 157.1553 203.0084 15.28549102145662
CICERO 7                
1 43143U 18004AJ  20237.80540128  .00001470  00000-0  60873-4 0  9990
2 43143  97.4424 309.6547 0007651 167.5311 192.6117 15.25504551145532
GOMX-4B                 
1 43196U 18015E   20237.88634910  .00000327  00000-0  16312-4 0  9990
2 43196  97.4468   5.9343 0017721 220.3237 139.6687 15.24305599142329
GOMX-4A                 
1 43197U 18015F   20238.48767417  .00000585  00000-0  26595-4 0  9997
2 43197  97.4468   6.6454 0017874 218.5907 204.2882 15.24590386142431
UBAKUSAT                
1 43467U 98067NQ  20238.41647133  .00028934  00000-0  16124-3 0  9991
2 43467  51.6342 285.9187 0002849   7.5246 352.5797 15.79186358130997
CUBERRT                 
1 43546U 98067NU  20236.45831442  .00013131  00000-0  86437-4 0  9997
2 43546  51.6334 296.8850 0003646 359.4181   0.6814 15.76059946120806
TEMPEST-D               
1 43547U 98067NV  20238.40087676  .00004762  00000-0  56378-4 0  9998
2 43547  51.6367 323.5785 0004547 323.5945  36.4740 15.63396244120300
RAINCUBE                
1 43548U 98067NW  20237.61942930  .00031495  00000-0  18366-3 0  9991
2 43548  51.6304 298.5791 0005370   3.0219 357.0813 15.78112737121010
HALOSAT                 
1 43549U 98067NX  20238.42515124  .00027290  00000-0  16814-3 0  9997
2 43549  51.6335 295.8245 0005182  10.6499 349.4610 15.76955694120681
